start=new Date('2022-03-21T00:00:00.000Z').valueOf();
sats=[{"ELEMENT_SET_NO":"999","OBJECT_ID":"2021-017BC","EPHEMERIS_TYPE":"0","CENTER_NAME":"EARTH","OBJECT_NAME":"STARLINK-2195","DECAY_DATE":null,"MEAN_ANOMALY":"295.1757","INCLINATION":"53.0549","TLE_LINE2":"2 47772  53.0549 250.0786 0001414  64.9378 295.1757 15.06406527 59073","FILE":"3367488","ECCENTRICITY":"0.00014140","ARG_OF_PERICENTER":"64.9378","TLE_LINE1":"1 47772U 21017BC  22079.87620682 -.00001080  00000-0 -53579-4 0  9991","PERIAPSIS":"546.214","APOAPSIS":"548.173","CLASSIFICATION_TYPE":"U","OBJECT_TYPE":"PAYLOAD","BSTAR":"-0.00005357900000","MEAN_MOTION_DDOT":"0.0000000000000","NORAD_CAT_ID":"47772","MEAN_MOTION":"15.06406527","SEMIMAJOR_AXIS":"6925.329","REV_AT_EPOCH":"5907","RA_OF_ASC_NODE":"250.0786","MEAN_ELEMENT_THEORY":"SGP4","REF_FRAME":"TEME","COUNTRY_CODE":"US","TIME_SYSTEM":"UTC","SITE":"AFETR","GP_ID":"199267212","LAUNCH_DATE":"2021-03-04","PERIOD":"95.592","RCS_SIZE":"LARGE","EPOCH":"2022-03-20T21:01:44.269248","MEAN_MOTION_DOT":"-0.00001080"},{"GP_ID":"199267964","TIME_SYSTEM":"UTC","SITE":"AFETR","LAUNCH_DATE":"2021-03-04","PERIOD":"95.592","MEAN_MOTION_DOT":"0.00002806","EPOCH":"2022-03-20T19:20:53.289312","RCS_SIZE":"LARGE","SEMIMAJOR_AXIS":"6925.323","RA_OF_ASC_NODE":"250.4006","MEAN_ELEMENT_THEORY":"SGP4","REF_FRAME":"TEME","REV_AT_EPOCH":"5905","COUNTRY_CODE":"US","PERIAPSIS":"546.101","TLE_LINE1":"1 47773U 21017BD  22079.80617233  .00002806  00000-0  20715-3 0  9993","APOAPSIS":"548.276","ARG_OF_PERICENTER":"65.3878","CLASSIFICATION_TYPE":"U","BSTAR":"0.00020715000000","OBJECT_TYPE":"PAYLOAD","NORAD_CAT_ID":"47773","MEAN_MOTION":"15.06408248","MEAN_MOTION_DDOT":"0.0000000000000","OBJECT_ID":"2021-017BD","EPHEMERIS_TYPE":"0","ELEMENT_SET_NO":"999","CENTER_NAME":"EARTH","MEAN_ANOMALY":"294.7274","INCLINATION":"53.0542","OBJECT_NAME":"STARLINK-2196","DECAY_DATE":null,"ECCENTRICITY":"0.00015700","FILE":"3367488","TLE_LINE2":"2 47773  53.0542 250.4006 0001570  65.3878 294.7274 15.06408248 59058"},{"MEAN_ELEMENT_THEORY":"SGP4","RA_OF_ASC_NODE":"250.1164","REF_FRAME":"TEME","REV_AT_EPOCH":"5907","COUNTRY_CODE":"US","SEMIMAJOR_AXIS":"6925.345","PERIOD":"95.592","EPOCH":"2022-03-20T20:51:07.204032","MEAN_MOTION_DOT":"0.00001276","RCS_SIZE":"LARGE","GP_ID":"199267715","SITE":"AFETR","TIME_SYSTEM":"UTC","LAUNCH_DATE":"2021-03-04","INCLINATION":"53.0550","MEAN_ANOMALY":"289.4710","OBJECT_NAME":"STARLINK-2197","DECAY_DATE":null,"FILE":"3367488","ECCENTRICITY":"0.00014620","TLE_LINE2":"2 47774  53.0550 250.1164 0001462  70.6437 289.4710 15.06401241 59074","OBJECT_ID":"2021-017BE","EPHEMERIS_TYPE":"0","ELEMENT_SET_NO":"999","CENTER_NAME":"EARTH","BSTAR":"0.00010453000000","OBJECT_TYPE":"PAYLOAD","MEAN_MOTION":"15.06401241","NORAD_CAT_ID":"47774","MEAN_MOTION_DDOT":"0.0000000000000","PERIAPSIS":"546.197","TLE_LINE1":"1 47774U 21017BE  22079.86883338  .00001276  00000-0  10453-3 0  9999","APOAPSIS":"548.222","ARG_OF_PERICENTER":"70.6437","CLASSIFICATION_TYPE":"U"},{"PERIOD":"95.593","RCS_SIZE":"LARGE","MEAN_MOTION_DOT":"0.00001091","EPOCH":"2022-03-20T21:07:02.360352","SITE":"AFETR","TIME_SYSTEM":"UTC","GP_ID":"199266463","LAUNCH_DATE":"2021-03-04","REV_AT_EPOCH":"5912","REF_FRAME":"TEME","RA_OF_ASC_NODE":"250.0692","MEAN_ELEMENT_THEORY":"SGP4","COUNTRY_CODE":"US","SEMIMAJOR_AXIS":"6925.371","OBJECT_TYPE":"PAYLOAD","BSTAR":"0.00009216800000","MEAN_MOTION_DDOT":"0.0000000000000","NORAD_CAT_ID":"47775","MEAN_MOTION":"15.06392623","ARG_OF_PERICENTER":"56.0792","APOAPSIS":"548.395","PERIAPSIS":"546.077","TLE_LINE1":"1 47775U 21017BF  22079.87988843  .00001091  00000-0  92168-4 0  9997","CLASSIFICATION_TYPE":"U","DECAY_DATE":null,"OBJECT_NAME":"STARLINK-2198","MEAN_ANOMALY":"304.0356","INCLINATION":"53.0538","TLE_LINE2":"2 47775  53.0538 250.0692 0001674  56.0792 304.0356 15.06392623 59122","ECCENTRICITY":"0.00016740","FILE":"3367488","ELEMENT_SET_NO":"999","EPHEMERIS_TYPE":"0","OBJECT_ID":"2021-017BF","CENTER_NAME":"EARTH"},{"SEMIMAJOR_AXIS":"6925.360","REF_FRAME":"TEME","RA_OF_ASC_NODE":"240.2463","MEAN_ELEMENT_THEORY":"SGP4","REV_AT_EPOCH":"5922","COUNTRY_CODE":"US","GP_ID":"199266713","SITE":"AFETR","TIME_SYSTEM":"UTC","LAUNCH_DATE":"2021-03-04","PERIOD":"95.592","EPOCH":"2022-03-20T20:09:58.849344","MEAN_MOTION_DOT":"0.00000468","RCS_SIZE":"LARGE","EPHEMERIS_TYPE":"0","OBJECT_ID":"2021-017BG","ELEMENT_SET_NO":"999","CENTER_NAME":"EARTH","MEAN_ANOMALY":"303.0935","INCLINATION":"53.0546","DECAY_DATE":null,"OBJECT_NAME":"STARLINK-2209","ECCENTRICITY":"0.00016320","FILE":"3367488","TLE_LINE2":"2 47776  53.0546 240.2463 0001632  57.0211 303.0935 15.06396109 59226","APOAPSIS":"548.356","PERIAPSIS":"546.095","TLE_LINE1":"1 47776U 21017BG  22079.84026446  .00000468  00000-0  50302-4 0  9998","ARG_OF_PERICENTER":"57.0211","CLASSIFICATION_TYPE":"U","BSTAR":"0.00005030200000","OBJECT_TYPE":"PAYLOAD","NORAD_CAT_ID":"47776","MEAN_MOTION":"15.06396109","MEAN_MOTION_DDOT":"0.0000000000000"},{"NORAD_CAT_ID":"47777","MEAN_MOTION":"15.06417598","MEAN_MOTION_DDOT":"0.0000000000000","BSTAR":"0.00023887000000","OBJECT_TYPE":"PAYLOAD","CLASSIFICATION_TYPE":"U","TLE_LINE1":"1 47777U 21017BH  22079.71125400  .00003280  00000-0  23887-3 0  9997","PERIAPSIS":"545.941","APOAPSIS":"548.378","ARG_OF_PERICENTER":"60.9506","ECCENTRICITY":"0.00017600","FILE":"3367488","TLE_LINE2":"2 47777  53.0540 240.8339 0001760  60.9506 299.1659 15.06417598 59203","MEAN_ANOMALY":"299.1659","INCLINATION":"53.0540","OBJECT_NAME":"STARLINK-2210","DECAY_DATE":null,"CENTER_NAME":"EARTH","EPHEMERIS_TYPE":"0","OBJECT_ID":"2021-017BH","ELEMENT_SET_NO":"999","EPOCH":"2022-03-20T17:04:12.345600","MEAN_MOTION_DOT":"0.00003280","RCS_SIZE":"LARGE","PERIOD":"95.591","LAUNCH_DATE":"2021-03-04","GP_ID":"199267465","SITE":"AFETR","TIME_SYSTEM":"UTC","COUNTRY_CODE":"US","RA_OF_ASC_NODE":"240.8339","MEAN_ELEMENT_THEORY":"SGP4","REF_FRAME":"TEME","REV_AT_EPOCH":"5920","SEMIMAJOR_AXIS":"6925.295"},{"SITE":"AFETR","TIME_SYSTEM":"UTC","GP_ID":"199268215","LAUNCH_DATE":"2021-03-04","PERIOD":"95.592","RCS_SIZE":"LARGE","MEAN_MOTION_DOT":"0.00001477","EPOCH":"2022-03-20T21:03:03.911040","SEMIMAJOR_AXIS":"6925.358","REV_AT_EPOCH":"5922","RA_OF_ASC_NODE":"240.0775","MEAN_ELEMENT_THEORY":"SGP4","REF_FRAME":"TEME","COUNTRY_CODE":"US","ARG_OF_PERICENTER":"70.9099","PERIAPSIS":"546.218","TLE_LINE1":"1 47778U 21017BJ  22079.87712860  .00001477  00000-0  11801-3 0  9996","APOAPSIS":"548.228","CLASSIFICATION_TYPE":"U","OBJECT_TYPE":"PAYLOAD","BSTAR":"0.00011801000000","MEAN_MOTION_DDOT":"0.0000000000000","NORAD_CAT_ID":"47778","MEAN_MOTION":"15.06397032","ELEMENT_SET_NO":"999","EPHEMERIS_TYPE":"0","OBJECT_ID":"2021-017BJ","CENTER_NAME":"EARTH","OBJECT_NAME":"STARLINK-2211","DECAY_DATE":null,"MEAN_ANOMALY":"289.2047","INCLINATION":"53.0538","TLE_LINE2":"2 47778  53.0538 240.0775 0001451  70.9099 289.2047 15.06397032 59225","FILE":"3367488","ECCENTRICITY":"0.00014510"},{"MEAN_MOTION_DOT":"-0.00000375","EPOCH":"2022-03-20T19:47:47.751072","RCS_SIZE":"LARGE","PERIOD":"95.018","LAUNCH_DATE":"2021-03-04","GP_ID":"199266963","TIME_SYSTEM":"UTC","SITE":"AFETR","COUNTRY_CODE":"US","MEAN_ELEMENT_THEORY":"SGP4","RA_OF_ASC_NODE":"234.0409","REF_FRAME":"TEME","REV_AT_EPOCH":"5931","SEMIMAJOR_AXIS":"6897.583","MEAN_MOTION":"15.15504894","NORAD_CAT_ID":"47779","MEAN_MOTION_DDOT":"0.0000000000000","BSTAR":"-0.00000349130000","OBJECT_TYPE":"PAYLOAD","CLASSIFICATION_TYPE":"U","PERIAPSIS":"518.297","TLE_LINE1":"1 47779U 21017BK  22079.82485823 -.00000375  00000-0 -34913-5 0  9997","APOAPSIS":"520.599","ARG_OF_PERICENTER":"103.7830","ECCENTRICITY":"0.00016690","FILE":"3367488","TLE_LINE2":"2 47779  53.0554 234.0409 0001669 103.7830 256.3349 15.15504894 59316","MEAN_ANOMALY":"256.3349","INCLINATION":"53.0554","OBJECT_NAME":"STARLINK-2212","DECAY_DATE":null,"CENTER_NAME":"EARTH","EPHEMERIS_TYPE":"0","OBJECT_ID":"2021-017BK","ELEMENT_SET_NO":"999"},{"CENTER_NAME":"EARTH","OBJECT_ID":"2021-017BL","EPHEMERIS_TYPE":"0","ELEMENT_SET_NO":"999","ECCENTRICITY":"0.00018160","FILE":"3367488","TLE_LINE2":"2 47780  53.0448 240.3066 0001816  65.8575 294.2604 15.06402002 59253","MEAN_ANOMALY":"294.2604","INCLINATION":"53.0448","OBJECT_NAME":"STARLINK-2213","DECAY_DATE":null,"CLASSIFICATION_TYPE":"U","TLE_LINE1":"1 47780U 21017BL  22079.83657287  .00001040  00000-0  88733-4 0  9991","PERIAPSIS":"545.950","APOAPSIS":"548.465","ARG_OF_PERICENTER":"65.8575","MEAN_MOTION":"15.06402002","NORAD_CAT_ID":"47780","MEAN_MOTION_DDOT":"0.0000000000000","BSTAR":"0.00008873300000","OBJECT_TYPE":"PAYLOAD","SEMIMAJOR_AXIS":"6925.342","COUNTRY_CODE":"US","MEAN_ELEMENT_THEORY":"SGP4","RA_OF_ASC_NODE":"240.3066","REF_FRAME":"TEME","REV_AT_EPOCH":"5925","LAUNCH_DATE":"2021-03-04","GP_ID":"199267213","SITE":"AFETR","TIME_SYSTEM":"UTC","MEAN_MOTION_DOT":"0.00001040","EPOCH":"2022-03-20T20:04:39.895968","RCS_SIZE":"LARGE","PERIOD":"95.592"},{"FILE":"3367488","ECCENTRICITY":"0.00016370","TLE_LINE2":"2 47781  53.0517 240.4193 0001637  68.0576 292.0587 15.06406128 59204","MEAN_ANOMALY":"292.0587","INCLINATION":"53.0517","DECAY_DATE":null,"OBJECT_NAME":"STARLINK-2223","CENTER_NAME":"EARTH","EPHEMERIS_TYPE":"0","OBJECT_ID":"2021-017BM","ELEMENT_SET_NO":"999","MEAN_MOTION":"15.06406128","NORAD_CAT_ID":"47781","MEAN_MOTION_DDOT":"0.0000000000000","BSTAR":"0.00009437000000","OBJECT_TYPE":"PAYLOAD","CLASSIFICATION_TYPE":"U","APOAPSIS":"548.328","PERIAPSIS":"546.061","TLE_LINE1":"1 47781U 21017BM  22079.80341508  .00001125  00000-0  94370-4 0  9993","ARG_OF_PERICENTER":"68.0576","COUNTRY_CODE":"US","REF_FRAME":"TEME","MEAN_ELEMENT_THEORY":"SGP4","RA_OF_ASC_NODE":"240.4193","REV_AT_EPOCH":"5920","SEMIMAJOR_AXIS":"6925.330","MEAN_MOTION_DOT":"0.00001125","EPOCH":"2022-03-20T19:16:55.062912","RCS_SIZE":"LARGE","PERIOD":"95.592","LAUNCH_DATE":"2021-03-04","GP_ID":"199267965","TIME_SYSTEM":"UTC","SITE":"AFETR"}];
